SL-16 R/B               
1 22803U 93059B   26083.44011638  .00000008  00000+0  27727-4 0  9993
2 22803  70.9928 340.0230 0017672 195.2213 164.8382 14.17235379681627
ARIANE 40 R/B           
1 22830U 93061H   26083.43277628  .00000227  00000+0  99084-4 0  9996
2 22830  98.4889 152.0276 0009785 236.4133 123.6117 14.32868524696215
COSMOS 2278             
1 23087U 94023A   26083.44966491 -.00000240  00000+0 -10086-3 0  9995
2 23087  71.0530 144.2201 0008987 349.3352  10.7579 14.14377142646899
SL-16 R/B               
1 23088U 94023B   26083.20675598  .00000260  00000+0  15896-3 0  9999
2 23088  71.0005  40.3975 0005471 271.7403  88.3093 14.15011966648143
SL-16 R/B               
1 23343U 94074B   26083.55653382  .00000444  00000+0  66053-4 0  9990
2 23343  97.7088 113.7710 0006976 160.9272 359.0313 14.79424095689441
SL-16 R/B               
1 23405U 94077B   26083.39469512  .00000132  00000+0  92148-4 0  9992
2 23405  70.9842 321.5545 0002225 198.5212 161.5830 14.15568542618314
ARIANE 40+ R/B          
1 23561U 95021B   26083.47059606  .00000308  00000+0  11221-3 0  9990
2 23561  98.4472 154.7511 0007974  98.2675 272.4214 14.39782762621371
SL-16 R/B               
1 23705U 95058B   26083.47305422 -.00000163  00000+0 -59118-4 0  9999
2 23705  71.0216 149.2203 0010146  98.3985 261.8288 14.15500546569940
SL-16 R/B               
1 24298U 96051B   26083.40104707  .00000092  00000+0  76353-4 0  9996
2 24298  70.7593 144.1026 0013845 124.6492 235.5934 14.12419714523729
ORBVIEW 2 (SEASTAR)     
1 24883U 97037A   26083.40377711  .00000283  00000+0  11470-3 0  9998
2 24883  98.8593 248.1074 0002610  40.6732 319.4647 14.35504826510587
SL-16 R/B               
1 25400U 98043G   26083.39571652  .00000074  00000+0  50090-4 0  9990
2 25400  98.8280  36.8656 0009438 337.9634  22.1138 14.26053021441089
SL-16 R/B               
1 25407U 98045B   26083.47672200 -.00000170  00000+0 -61505-4 0  9991
2 25407  71.0114 150.4798 0007753 344.6506  15.4381 14.16195301429196
ISS (ZARYA)             
1 25544U 98067A   26083.48628161  .00013391  00000+0  25488-3 0  9991
2 25544  51.6345 359.2131 0006234 227.6352 132.4108 15.48523431558623
CZ-4B R/B               
1 25732U 99025C   26083.56985308  .00000035  00000+0  37632-4 0  9999
2 25732  98.6597 127.4970 0036107 303.0046 213.5951 14.18268188390272
OKEAN-O                 
1 25860U 99039A   26083.18443641  .00000700  00000+0  98649-4 0  9997
2 25860  97.9412 142.9265 0000918  83.2794 276.8523 14.80357799436532
SL-16 R/B               
1 25861U 99039B   26083.42078980  .00000590  00000+0  81608-4 0  9999
2 25861  97.9935 142.4932 0014219 204.8303 155.2227 14.81750772439044
DELTA 2 R/B             
1 25876U 99041E   26082.74165472  .00000486  00000+0  11788-3 0  9990
2 25876  51.7605 245.1476 0502617  29.8785 332.9857 14.11869343365015
